OBJECT C                
1 57582U 23117C   24310.13750732  .00020752  00000+0  96204-3 0  9998
2 57582  97.4720  20.5157 0010445 156.5267 203.6447 15.20049262 68566
